KUIPER-00157            
1 65970U 25228Z   25343.53471738  .00051131  00000+0  14473-2 0  9992
2 65970  51.8818  36.0769 0007584  13.2133 346.9051 15.35765639  9926
